CCSDS_OEM_VERS = 2.0  
CREATION_DATE  = 2026-03-24T10:47:28
ORIGINATOR     = ESOC/OPS-GFA                            
 
 



META_START
OBJECT_NAME          = LISA                                    
OBJECT_ID            = -1000                                   
CENTER_NAME          = SUN                     
REF_FRAME            = EME2000 
TIME_SYSTEM          = TCB
START_TIME           = 2036-12-23T00:00:30.346418            
STOP_TIME            = 2047-09-07T17:20:09.341616            
INTERPOLATION        = HERMITE                                 
INTERPOLATION_DEGREE = 7                                       
META_STOP

2047-04-25T15:34:53.980695    -1.48158641870688528e+08   -1.82917412973156348e+07   -8.70121577699843794e+06    4.15528833750786042e+00   -2.70201343245385388e+01   -1.19337443907546294e+01    5.88025207838721631e-06    7.25875022626739510e-07    3.45301574390174339e-07
2047-04-26T11:48:36.090456    -1.47840463317502409e+08   -2.02574106657439582e+07   -9.56931010432215780e+06    4.58308501079314290e+00   -2.69644281060353315e+01   -1.19073415347596754e+01    5.86862734804710998e-06    8.04028384734578836e-07    3.79820546360232780e-07
2047-04-27T08:02:18.200217    -1.47491163692705482e+08   -2.22188163161388785e+07   -1.04353902640669886e+07    5.00998964998703133e+00   -2.69030357348229074e+01   -1.18784273955492168e+01    5.85575338944396652e-06    8.82037764684511959e-07    4.14270680796583872e-07
2047-04-28T04:16:00.309978    -1.47110811267987281e+08   -2.41755445662381165e+07   -1.12992735678252336e+07    5.43591135308961704e+00   -2.68359683115924490e+01   -1.18470072579488406e+01    5.84163215669029657e-06    9.59886257454514838e-07    4.48644510522847472e-07
2047-04-29T00:29:42.419740    -1.46699480898115814e+08   -2.61271825712533072e+07   -1.21607777247391269e+07    5.86075937057246854e+00   -2.67632381676081472e+01   -1.18130869502895575e+01    5.82626588137204887e-06    1.03755697167507034e-06    4.82934575896288677e-07
2047-04-29T20:43:24.529501    -1.46257254014901072e+08   -2.80733184168354720e+07   -1.30197208825870845e+07    6.28444312513340808e+00   -2.66848588636579152e+01   -1.17766728438386856e+01    5.80965705939124348e-06    1.11503303101178772e-06    5.17133425306306393e-07
2047-04-30T16:57:06.639262    -1.45784218637511045e+08   -3.00135412212064303e+07   -1.38759216729994919e+07    6.70687223033363100e+00   -2.66008451889315296e+01   -1.17377718522083470e+01    5.79180843344884674e-06    1.19229757477831559e-06    5.51233615291766829e-07
2047-05-01T13:10:48.749025    -1.45280469404323906e+08   -3.19474412491144724e+07   -1.47291992620040141e+07    7.12795650779315526e+00   -2.65112131598823666e+01   -1.16963914307694488e+01    5.77272297099701528e-06    1.26933375777397934e-06    5.85227710273879168e-07
2047-05-02T09:24:30.858786    -1.44746107631499767e+08   -3.38746100402720273e+07   -1.55793734070996922e+07    7.54760600262063885e+00   -2.64159800191290195e+01   -1.16525395760989774e+01    5.75240383771071106e-06    1.34612474934886535e-06    6.19108281906159765e-07
2047-05-03T05:36:02.278144    -1.44182282122902632e+08   -3.57912012406052351e+07   -1.64247476210035738e+07    7.96498204719661018e+00   -2.63153501495261146e+01   -1.16063101436253007e+01    5.73089479118583808e-06    1.42251672527584151e-06    6.52807477143849845e-07
2047-05-04T01:47:33.697501    -1.43588174876667887e+08   -3.77002759312347919e+07   -1.72666724318460412e+07    8.38075014044568789e+00   -2.62091772313829274e+01   -1.15576356711814192e+01    5.70816405088327460e-06    1.49863100607004387e-06    6.86378826296807715e-07
2047-05-04T21:59:05.116859    -1.42963906023217112e+08   -3.96014319521017373e+07   -1.81049704610096179e+07    8.79482162769603981e+00   -2.60974820535999967e+01   -1.15065257180151885e+01    5.68421583457490771e-06    1.57445100749921705e-06    7.19815013573719037e-07
2047-05-05T18:10:36.536217    -1.42309602077989787e+08   -4.14942686561369449e+07   -1.89394650252915695e+07    9.20710816907640073e+00   -2.59802866099316709e+01   -1.14529903748624839e+01    5.65905458967802962e-06    1.64996016645561035e-06    7.53108732768033948e-07
2047-05-06T14:22:07.955575    -1.41625395960214823e+08   -4.33783870323941559e+07   -1.97699801914475262e+07    9.61752175698820366e+00   -2.58576140969342774e+01   -1.13970402630151373e+01    5.63268501385715164e-06    1.72514195483807086e-06    7.86252693585799957e-07
2047-05-07T10:33:39.374932    -1.40911426990136772e+08   -4.52533898120636120e+07   -2.05963408230719678e+07    1.00259747349150317e+01   -2.57294889109725560e+01   -1.13386865329596009e+01    5.60511207132814414e-06    1.79997989159632467e-06    8.19239627136213796e-07
2047-05-08T06:45:10.794290    -1.40167840869094312e+08   -4.71188815610643774e+07   -2.14183726214701608e+07    1.04323798172611344e+01   -2.55959366444172858e+01   -1.12779408626468847e+01    5.57634100486913327e-06    1.87445755294041661e-06    8.52062290586246607e-07
2047-05-09T02:56:42.213648    -1.39394789646851748e+08   -4.89744687628948092e+07   -2.22359021621679589e+07    1.08366501099067456e+01   -2.54569840811675583e+01   -1.12148154554545663e+01    5.54637734352847109e-06    1.94855858071195825e-06    8.84713470977833601e-07
2047-05-09T23:08:13.633006    -1.38592431680584222e+08   -5.08197598954208195e+07   -2.30487569287059382e+07    1.12386991311678770e+01   -2.53126591916311554e+01   -1.11493230379016808e+01    5.51522690604889596e-06    2.02226668892350728e-06    9.17185988210468921e-07
2047-05-10T19:19:45.052364    -1.37760931589917541e+08   -5.26543655052814558e+07   -2.38567653453641832e+07    1.16384408328482998e+01   -2.51629911272964470e+01   -1.10814768571772753e+01    5.48289579997463355e-06    2.09556566845558416e-06    9.49472697184448446e-07
2047-05-11T15:31:16.471722    -1.36900460212423325e+08   -5.44778982835911587e+07   -2.46597568104641959e+07    1.20357896210714159e+01   -2.50080102150293193e+01   -1.10112906785434248e+01    5.44939041648951457e-06    2.16843938992668063e-06    9.81566489111800875e-07
2047-05-12T11:42:47.891080    -1.36011194563970298e+08   -5.62899731466185004e+07   -2.54575617318943217e+07    1.24306603765797643e+01   -2.48477479512285342e+01   -1.09387787826735430e+01    5.41471742094049466e-06    2.24087180472025309e-06    1.01346029198742926e-06
2047-05-13T07:54:19.310437    -1.35093317808332413e+08   -5.80902073251206577e+07   -2.62500115665050410e+07    1.28229684741897820e+01   -2.46822369959730175e+01   -1.08639559629867222e+01    5.37888373906546195e-06    2.31284694417706138e-06    1.04514707022466450e-06
2047-05-14T04:05:50.729795    -1.34147019240454659e+08   -5.98782204660133421e+07   -2.70369388650207445e+07    1.32126298010896477e+01   -2.45115111672944579e+01   -1.07868375230389848e+01    5.34189653892520349e-06    2.38434891695386050e-06    1.07661982345512140e-06
2047-05-15T00:17:22.149153    -1.33172494287777260e+08   -6.16536347500556260e+07   -2.78181773241140023e+07    1.35995607736677151e+01   -2.43356054357087643e+01   -1.07074392740321542e+01    5.30376320857387614e-06    2.45536190455085020e-06    1.10787158449453305e-06
2047-05-15T20:28:53.568510    -1.32169944534019098e+08   -6.34160750292293131e+07   -2.85935618472892083e+07    1.39836783525595294e+01   -2.41545559191397423e+01   -1.06257775325012229e+01    5.26449132931773513e-06    2.52587015497725979e-06    1.13889541646013785e-06
2047-05-16T16:40:29.266620    -1.31139516076434061e+08   -6.51652713250844330e+07   -2.93629736251711920e+07    1.43649224274664551e+01   -2.39683887634880683e+01   -1.05418641098966841e+01    5.22408683995308814e-06    2.59586231773115375e-06    1.16968632272222342e-06
2047-05-17T12:52:04.964731    -1.30081480580465212e+08   -6.69007496054260060e+07   -3.01262041141292900e+07    1.47431884239539510e+01   -2.37771528634584826e+01   -1.04557210628260560e+01    5.18256001559475991e-06    2.66531860879016302e-06    1.20023559434815501e-06
2047-05-18T09:03:40.662840    -1.28996057513535842e+08   -6.86221428517962694e+07   -3.08830918869254924e+07    1.51183950641605271e+01   -2.35808877324695558e+01   -1.03673662025714197e+01    5.13991944825532701e-06    2.73422369209267978e-06    1.23053648286217017e-06
2047-05-19T05:15:16.360950    -1.27883472191860959e+08   -7.03290869072228968e+07   -3.16334768060313836e+07    1.54904617025142777e+01   -2.33796339960496340e+01   -1.02768178297459407e+01    5.09617394471666520e-06    2.80256231054707649e-06    1.26058227569270759e-06
2047-05-20T01:26:52.059059    -1.26743955766639918e+08   -7.20212206007857323e+07   -3.23772000786684342e+07    1.58593083419955274e+01   -2.31734333854486572e+01   -1.01840947313956534e+01    5.05133254366909104e-06    2.87031930335829166e-06    1.29036630388214417e-06
2047-05-20T21:38:27.757169    -1.25577745193338022e+08   -7.36981858507567048e+07   -3.31141043023022227e+07    1.62248556515031126e+01   -2.29623287300890482e+01   -1.00892161775849285e+01    5.00540452903983277e-06    2.93747962068060200e-06    1.31988194860059190e-06
2047-05-21T17:50:03.455278    -1.24385083187462911e+08   -7.53596277508793920e+07   -3.38440335026242808e+07    1.65870249840512756e+01   -2.27463639490483942e+01   -9.99220191755179066e+00    4.95839943951719918e-06    3.00402833560178550e-06    1.34912264646599212e-06
2047-05-22T14:01:39.153389    -1.23166218170249894e+08   -7.70051946443379521e+07   -3.45668331660476848e+07    1.69457383955202943e+01   -2.25255840417681483e+01   -9.89307217551997198e+00    4.91032707425871942e-06    3.06995065345224981e-06    1.37808189366765832e-06
2047-05-23T10:13:14.851499    -1.21921404207670048e+08   -7.86345381899642199e+07   -3.52823502687424049e+07    1.73009186636839729e+01   -2.23000350781824821e+01   -9.79184764625453496e+00    4.86119749480342743e-06    3.13523191845018829e-06    1.40675324889820501e-06
